[{"OBJECT_NAME":"STARLINK-2461","OBJECT_ID":"2021-040A","EPOCH":"2026-03-09T12:33:55.047456","MEAN_MOTION":15.30208541,"ECCENTRICITY":0.00014228,"INCLINATION":53.1634,"RA_OF_ASC_NODE":179.5041,"ARG_OF_PERICENTER":95.7277,"MEAN_ANOMALY":264.3886,"EPHEMERIS_TYPE":0,"CLASSIFICATION_TYPE":"U","NORAD_CAT_ID":48428,"ELEMENT_SET_NO":999,"REV_AT_EPOCH":26665,"BSTAR":3.780316e-6,"MEAN_MOTION_DOT":-2.47e-6,"MEAN_MOTION_DDOT":0},{"OBJECT_NAME":"HERMES-3","OBJECT_ID":"2025-052BR","EPOCH":"2026-03-09T22:30:01.073952","MEAN_MOTION":15.30039786,"ECCENTRICITY":0.00079928,"INCLINATION":97.3987,"RA_OF_ASC_NODE":324.6131,"ARG_OF_PERICENTER":112.9583,"MEAN_ANOMALY":247.2502,"EPHEMERIS_TYPE":0,"CLASSIFICATION_TYPE":"U","NORAD_CAT_ID":63835,"ELEMENT_SET_NO":999,"REV_AT_EPOCH":5486,"BSTAR":0.0006995793,"MEAN_MOTION_DOT":0.00020316,"MEAN_MOTION_DDOT":0}]
